OBJECT_NAME,OBJECT_ID,EPOCH,MEAN_MOTION,ECCENTRICITY,INCLINATION,RA_OF_ASC_NODE,ARG_OF_PERICENTER,MEAN_ANOMALY,EPHEMERIS_TYPE,CLASSIFICATION_TYPE,NORAD_CAT_ID,ELEMENT_SET_NO,REV_AT_EPOCH,BSTAR,MEAN_MOTION_DOT,MEAN_MOTION_DDOT
BEIDOU-3S IGSO-1S (C31),2015-019A,2026-07-02T19:12:21.705408,1.00680073,.00768606,49.1798,295.2769,219.1125,144.2493,0,U,40549,999,4123,0,-.19E-5,0
GPS BIIF-10 (PRN 08),2015-033A,2026-07-10T03:45:24.547968,2.00555017,.01152742,53.9649,266.1387,30.2838,330.4454,0,U,40730,999,8045,0,.7E-7,0
BEIDOU-3S M2S (C58),2015-037A,2026-07-09T08:07:09.401664,1.86232291,.0009247,54.8497,301.2843,257.2985,102.6179,0,U,40748,999,7453,0,-.66E-6,0
BEIDOU-3S M1S (C57),2015-037B,2026-07-09T00:08:48.662592,1.86254773,.00028739,54.8467,301.2824,63.4413,296.6083,0,U,40749,999,7453,0,-.66E-6,0
GSAT0206 (GALILEO 10),2015-045B,2026-07-07T23:42:16.285536,1.70473579,.00019272,54.9404,221.0297,331.1596,28.9023,0,U,40890,999,6739,0,.82E-6,0
BEIDOU-3S IGSO-2S (C56),2015-053A,2026-07-09T15:48:31.002624,1.00254643,.00661364,49.1869,258.5151,192.8518,167.1461,0,U,40938,999,3958,0,-.103E-5,0
GPS BIIF-11 (PRN 10),2015-062A,2026-07-10T05:04:43.655232,2.00566916,.0112642,56.9748,29.9248,230.9097,128.1346,0,U,41019,999,7829,0,-.5E-6,0
GSAT-15 (GAGAN/PRN 139),2015-065A,2026-07-10T07:12:14.253408,1.00271341,.00036703,0.0133,334.0803,116.2719,39.4391,0,U,41028,999,3903,0,-.247E-5,0
GSAT0209 (GALILEO 12),2015-079A,2026-07-08T03:44:33.897696,1.70473596,.00049977,55.8390,100.6867,350.6288,9.3765,0,U,41174,999,6513,0,-.8E-7,0
GSAT0208 (GALILEO 11),2015-079B,2026-07-08T09:01:55.815744,1.70473357,.00044233,55.8379,100.6775,15.9812,344.0466,0,U,41175,999,6555,0,-.9E-7,0
IRNSS-1E,2016-003A,2026-07-08T18:55:39.347904,1.00268624,.001924,33.2798,59.4366,178.8165,84.1076,0,U,41241,999,3829,0,-.309E-5,0
GPS BIIF-12 (PRN 32),2016-007A,2026-07-08T19:22:50.496096,2.00575699,.00966024,55.5370,88.6024,247.6357,111.3718,0,U,41328,999,7627,0,-.3E-6,0
COSMOS 2514 (751),2016-008A,2026-07-10T06:41:38.477184,2.13102592,.00121499,65.0065,312.2143,200.5836,159.3748,0,U,41330,999,8111,0,-.6E-6,0
BEIDOU-2 IGSO-6 (C13),2016-021A,2026-06-26T02:38:38.671584,1.00258926,.0057558,60.2385,37.9495,231.0163,137.2672,0,U,41434,999,3757,0,-.145E-5,0
IRNSS-1G,2016-027A,2026-07-10T05:25:51.597696,1.00273629,.00059474,5.2507,96.9405,9.4758,32.8634,0,U,41469,999,3741,0,-.328E-5,0
GSAT0211 (GALILEO 14),2016-030A,2026-07-06T17:45:56.222784,1.70473798,.00031513,55.0912,221.1568,320.2571,39.7906,0,U,41549,999,6300,0,.78E-6,0
GSAT0210 (GALILEO 13),2016-030B,2026-07-09T22:19:47.714304,1.70474002,.00046831,55.0899,221.0670,245.4873,114.5425,0,U,41550,999,6305,0,.89E-6,0
BEIDOU-2 G7 (C03),2016-037A,2026-07-09T15:53:15.184320,1.00264599,.00060738,1.7726,69.5133,6.8145,199.9992,0,U,41586,999,711,0,-.341E-5,0
EUTELSAT 117 WEST B (WAAS/PRN 131),2016-038B,2026-07-10T06:12:19.995264,1.00273613,.0000353,0.0062,158.6562,302.6110,163.0106,0,U,41589,999,3689,0,-.1E-7,0
GSAT0207 (GALILEO 15),2016-069A,2026-07-09T00:51:31.567392,1.70473324,.0004251,55.5102,100.4816,344.5564,15.4422,0,U,41859,999,5977,0,-.14E-6,0
GSAT0212 (GALILEO 16),2016-069B,2026-07-07T03:06:21.976128,1.70473650,.000438,55.5076,100.5296,9.6218,350.4046,0,U,41860,999,5999,0,-.3E-7,0
GSAT0213 (GALILEO 17),2016-069C,2026-07-06T07:45:43.314336,1.70474232,.00046289,55.5092,100.5598,315.4701,44.5123,0,U,41861,999,5984,0,0,0
GSAT0214 (GALILEO 18),2016-069D,2026-07-06T11:16:20.180064,1.70473830,.00038073,55.5080,100.5485,326.3091,33.6861,0,U,41862,999,5997,0,-.1E-7,0
SES-15 (WAAS/PRN 133),2017-026A,2026-07-10T08:07:44.683968,1.00266831,.00003137,0.0258,325.5146,127.4028,188.1175,0,U,42709,999,766,0,.71E-6,0
QZS-2 (QZSS/PRN 194),2017-028A,2026-07-09T11:02:38.826240,1.00278207,.07580661,39.3944,242.8253,269.5337,83.0316,0,U,42738,999,785,0,-.92E-6,0
QZS-3 (QZSS/PRN 199),2017-048A,2026-07-10T07:21:58.319136,1.00274625,.00025269,0.0737,218.9036,264.9421,41.8841,0,U,42917,999,3249,0,-.337E-5,0
COSMOS 2522 (752),2017-055A,2026-07-10T02:47:54.879360,2.13101919,.00109107,64.0805,191.1038,240.8947,119.0275,0,U,42939,999,6846,0,.122E-5,0
QZS-4 (QZSS/PRN 195),2017-062A,2026-07-09T17:46:38.218368,1.00291716,.07474153,40.0954,343.1995,268.4439,81.4735,0,U,42965,999,3202,0,-.315E-5,0
BEIDOU-3 M1 (C19),2017-069A,2026-07-09T03:33:28.229760,1.86231366,.00094138,56.7103,62.3623,327.9013,32.1028,0,U,43001,999,5901,0,-.46E-6,0
GSAT0215 (GALILEO 19),2017-079A,2026-07-09T07:20:07.644192,1.70474298,.00036237,55.0687,220.8977,268.5833,91.4517,0,U,43055,999,5336,0,.88E-6,0
